{"type":"FeatureCollection","features":[{"type":"Feature","properties":{},"geometry":{"type":"Polygon","coordinates":[[[13.0240125,53.7997185],[13.0264899,53.7946644],[13.0296179,53.7906094],[13.0331664,53.7865792],[13.032864,53.7864126],[13.0346128,53.7852312],[13.0354658,53.7851365],[13.0354822,53.7848277],[13.0359181,53.784007],[13.0360052,53.7833115],[13.0359985,53.7827535],[13.0356843,53.7823573],[13.0350137,53.7820026],[13.0349022,53.7817921],[13.0349781,53.7815788],[13.0352376,53.7813775],[13.0360041,53.7812152],[13.0365354,53.7811488],[13.0369127,53.780901],[13.0375528,53.780325],[13.0372524,53.779913],[13.0364048,53.7797545],[13.0363834,53.7794565],[13.0427388,53.7778465],[13.0402945,53.7764124],[13.0387866,53.7753102],[13.0371129,53.7755638],[13.035686,53.7754243],[13.0341411,53.7750946],[13.0321348,53.7751771],[13.0314118,53.7746876],[13.0309439,53.7724633],[13.0320341,53.7708276],[13.0339479,53.7703772],[13.0352998,53.7691978],[13.0393123,53.76831],[13.0435949,53.7691188],[13.0447626,53.7686524],[13.0464148,53.7692105],[13.0477452,53.7683861],[13.0499339,53.7686017],[13.0510926,53.7678788],[13.0572537,53.7711911],[13.0670029,53.7653328],[13.0660078,53.7638679],[13.0661351,53.763851],[13.0664969,53.7637642],[13.0675079,53.7634644],[13.0676838,53.7634196],[13.0678277,53.7633841],[13.068201,53.7632876],[13.0689325,53.7631052],[13.0699344,53.7629085],[13.0699998,53.7629006],[13.070909,53.7628014],[13.0720246,53.7631669],[13.0746531,53.7633581],[13.0752743,53.7640764],[13.0827534,53.7639279],[13.0885112,53.7635955],[13.0911112,53.7655324],[13.0916432,53.7661965],[13.0915812,53.7667644],[13.0911525,53.7672623],[13.0913901,53.7680056],[13.0919051,53.7683861],[13.0930902,53.7692721],[13.0950379,53.7712649],[13.0956082,53.7731385],[13.1018614,53.7743339],[13.1018226,53.7750264],[13.1029558,53.7761471],[13.1068847,53.7772414],[13.1078052,53.7787084],[13.1095656,53.779981],[13.1118393,53.7813076],[13.1127656,53.7816008],[13.115294,53.7813076],[13.1168175,53.7803821],[13.1194178,53.7802145],[13.1230818,53.7817889],[13.1326631,53.7836586],[13.1385541,53.7844392],[13.1390047,53.7841095],[13.1419015,53.7846166],[13.14334,53.7854064],[13.1435942,53.7874531],[13.1424973,53.7885356],[13.1414764,53.7892464],[13.1393695,53.7916015],[13.1393937,53.792157],[13.1383395,53.792869],[13.1373824,53.7956437],[13.1374168,53.7964813],[13.13658,53.797774],[13.1355285,53.7975966],[13.1344344,53.7981562],[13.1321775,53.8029591],[13.1319237,53.8043005],[13.1283464,53.8067582],[13.1272673,53.8080891],[13.1234908,53.809825],[13.1224421,53.8094894],[13.1205506,53.8099948],[13.1204217,53.8132934],[13.1195045,53.8137289],[13.1194094,53.8166766],[13.1202177,53.820803],[13.1221321,53.8264962],[13.1156747,53.8287364],[13.115625,53.8288139],[13.1152544,53.8293913],[13.1145494,53.8296367],[13.1140062,53.8298427],[13.1138969,53.8297882],[13.1137456,53.8298229],[13.1137402,53.8299525],[13.1137372,53.8300263],[13.1136871,53.8300827],[13.1136447,53.8301305],[13.1135676,53.8301137],[13.113485,53.8300957],[13.1133715,53.8300347],[13.1131067,53.8298923],[13.1123334,53.8300312],[13.1116609,53.8302495],[13.1114088,53.8305521],[13.1111986,53.830572],[13.1110802,53.8305238],[13.1106365,53.8303432],[13.1087582,53.8305537],[13.1082114,53.8304134],[13.1070426,53.8307326],[13.1064191,53.8309026],[13.1061813,53.8309674],[13.1060003,53.8310167],[13.1058987,53.8310888],[13.1035277,53.8327706],[13.1011264,53.8333459],[13.1001422,53.8340568],[13.099971,53.8341805],[13.0998009,53.8343033],[13.0993726,53.8344991],[13.0980594,53.8350996],[13.0968164,53.8353115],[13.0944936,53.8357076],[13.093843,53.8356378],[13.093709,53.8356234],[13.0936387,53.8355008],[13.0934356,53.8351464],[13.0928412,53.8350412],[13.0920923,53.8352727],[13.0917594,53.8355322],[13.0919021,53.8357707],[13.0915098,53.8361004],[13.0912197,53.8361117],[13.0907473,53.8358993],[13.0904931,53.835785],[13.0876136,53.8338912],[13.088665,53.8316245],[13.0827616,53.8284351],[13.0804283,53.8236381],[13.0813694,53.8221891],[13.0808437,53.8213151],[13.0817556,53.8207641],[13.0806445,53.8199962],[13.0798337,53.8174772],[13.0785799,53.8168119],[13.0781937,53.8160962],[13.0795385,53.8150341],[13.0725676,53.8156572],[13.0652825,53.8112864],[13.063993,53.8091544],[13.0594798,53.8061468],[13.0575565,53.8019369],[13.0462139,53.8041725],[13.0445763,53.8030277],[13.0434966,53.8022729],[13.0430889,53.8015759],[13.0414367,53.800372],[13.0415439,53.799637],[13.0412139,53.7981539],[13.0240125,53.7997185]]]}}]}